{
    "links": {
        "self": "http://www.neowsapp.com/rest/v1/neo/3989403?api_key=iIulBulltgU6a56xZRHN4H3l9WmuAYTsLGpBGhQ2"
    },
    "id": "3989403",
    "neo_reference_id": "3989403",
    "name": "(2020 BR15)",
    "designation": "2020 BR15",
    "nasa_jpl_url": "http://ssd.jpl.nasa.gov/sbdb.cgi?sstr=3989403",
    "absolute_magnitude_h": 26.297,
    "estimated_diameter": {
        "kilometers": {
            "estimated_diameter_min": 0.0146269904,
            "estimated_diameter_max": 0.0327069449
        },
        "meters": {
            "estimated_diameter_min": 14.6269904085,
            "estimated_diameter_max": 32.7069448595
        },
        "miles": {
            "estimated_diameter_min": 0.0090887877,
            "estimated_diameter_max": 0.020323147
        },
        "feet": {
            "estimated_diameter_min": 47.9888152117,
            "estimated_diameter_max": 107.306252973
        }
    },
    "is_potentially_hazardous_asteroid": false,
    "close_approach_data": [
        {
            "close_approach_date": "2020-01-17",
            "close_approach_date_full": "2020-Jan-17 19:03",
            "epoch_date_close_approach": 1579287780000,
            "relative_velocity": {
                "kilometers_per_second": "7.7280216779",
                "kilometers_per_hour": "27820.8780402709",
                "miles_per_hour": "17286.8116911894"
            },
            "miss_distance": {
                "astronomical": "0.0270639193",
                "lunar": "10.5278646077",
                "kilometers": "4048704.681131891",
                "miles": "2515748.4320504558"
            },
            "orbiting_body": "Earth"
        },
        {
            "close_approach_date": "2045-01-10",
            "close_approach_date_full": "2045-Jan-10 01:57",
            "epoch_date_close_approach": 2367626220000,
            "relative_velocity": {
                "kilometers_per_second": "8.6952732282",
                "kilometers_per_hour": "31302.9836214006",
                "miles_per_hour": "19450.4566840864"
            },
            "miss_distance": {
                "astronomical": "0.0827692784",
                "lunar": "32.1972492976",
                "kilometers": "12382107.750077008",
                "miles": "7693884.9857103904"
            },
            "orbiting_body": "Mars"
        }
    ],
    "orbital_data": {
        "orbit_id": "2",
        "orbit_determination_date": "2020-02-22 15:13:22",
        "first_observation_date": "2020-01-31",
        "last_observation_date": "2020-02-05",
        "data_arc_in_days": 5,
        "observations_used": 14,
        "orbit_uncertainty": "8",
        "minimum_orbit_intersection": ".00324833",
        "jupiter_tisserand_invariant": "4.484",
        "epoch_osculation": "2458880.5",
        "eccentricity": ".3881688682086926",
        "semi_major_axis": "1.487038058672829",
        "inclination": "1.568049799107233",
        "ascending_node_longitude": "21.43137101535225",
        "orbital_period": "662.3408676039256",
        "perihelion_distance": ".9098161784545459",
        "perihelion_argument": "53.17081248049558",
        "aphelion_distance": "2.064259938891113",
        "perihelion_time": "2458832.884167305832",
        "mean_anomaly": "25.8804802909294",
        "mean_motion": ".5435267814627393",
        "equinox": "J2000",
        "orbit_class": {
            "orbit_class_type": "APO",
            "orbit_class_description": "Near-Earth asteroid orbits which cross the Earth’s orbit similar to that of 1862 Apollo",
            "orbit_class_range": "a (semi-major axis) > 1.0 AU; q (perihelion) < 1.017 AU"
        }
    },
    "is_sentry_object": false
}